NORAD_CAT_ID,OBJECT_NAME,OBJECT_TYPE,EPOCH,MEAN_MOTION,ECCENTRICITY,INCLINATION,RA_OF_ASC_NODE,ARG_OF_PERICENTER,MEAN_ANOMALY,BSTAR,MEAN_MOTION_DOT,MEAN_MOTION_DDOT,TLE_LINE0,TLE_LINE1,TLE_LINE2,SEMIMAJOR_AXIS,PERIOD,APOGEE,PERIGEE,DECAYED
53588.0,STARLINK-4691,PAYLOAD,2024-07-02 12:48:15,15.08849803,0.0001273,53.2161,125.9139,92.2557,267.8581,0.00032849,4.945e-05,0.0,0 STARLINK-4691,1 53588U 22104A   24184.53350998  .00004945  00000-0  32849-3 0  9990,2 53588  53.2161 125.9139 0001273  92.2557 267.8581 15.08849803103223,6917.85,95.437,540.596,538.835,0.0
53588.0,STARLINK-4691,PAYLOAD,2024-07-02 20:45:11,15.08843791,0.0002117,53.215,124.4266,78.8627,281.2603,0.0001023,1.34e-05,0.0,0 STARLINK-4691,1 53588U 22104A   24184.86471410  .00001340  00000-0  10230-3 0  9995,2 53588  53.2150 124.4266 0002117  78.8627 281.2603 15.08843791103272,6917.869,95.437,541.198,538.269,0.0
53588.0,STARLINK-4691,PAYLOAD,2024-07-03 03:06:43,15.08838847,0.0001449,53.2163,123.242,103.1604,256.9549,3.2722e-05,2.33e-06,0.0,0 STARLINK-4691,1 53588U 22104A   24185.12967523  .00000233  00000-0  32722-4 0  9991,2 53588  53.2163 123.2420 0001449 103.1604 256.9549 15.08838847102148,6917.884,95.438,540.751,538.747,0.0
53588.0,STARLINK-4691,PAYLOAD,2024-07-03 12:39:02,15.0885129,0.0001254,53.2161,121.4526,84.855,275.2585,0.00019078,2.751e-05,0.0,0 STARLINK-4691,1 53588U 22104A   24185.52710729  .00002751  00000-0  19078-3 0  9994,2 53588  53.2161 121.4526 0001254  84.8550 275.2585 15.08851290102200,6917.846,95.437,540.578,538.843,0.0
53588.0,STARLINK-4691,PAYLOAD,2024-07-04 04:32:54,15.08837,0.0001315,53.2163,118.4796,95.063,265.0512,3.8345e-05,3.22e-06,0.0,0 STARLINK-4691,1 53588U 22104A   24186.18951714  .00000322  00000-0  38345-4 0  9999,2 53588  53.2163 118.4796 0001315  95.0630 265.0512 15.08837000102309,6917.89,95.438,540.664,538.845,0.0
53588.0,STARLINK-4691,PAYLOAD,2024-07-04 12:29:49,15.08845683,0.0001516,53.2172,116.9945,87.2483,272.8683,0.00012691,1.733e-05,0.0,0 STARLINK-4691,1 53588U 22104A   24186.52071405  .00001733  00000-0  12691-3 0  9999,2 53588  53.2172 116.9945 0001516  87.2483 272.8683 15.08845683103526,6917.863,95.437,540.777,538.679,0.0
53588.0,STARLINK-4691,PAYLOAD,2024-07-05 12:20:36,15.08859168,0.0001577,53.2172,112.5305,77.5658,282.5511,0.00043391,6.628e-05,0.0,0 STARLINK-4691,1 53588U 22104A   24187.51430886  .00006628  00000-0  43391-3 0  9990,2 53588  53.2172 112.5305 0001577  77.5658 282.5511 15.08859168103678,6917.822,95.436,540.778,538.596,0.0
53588.0,STARLINK-4691,PAYLOAD,2024-07-06 04:14:28,15.0884203,0.0001355,53.2157,109.5586,85.2403,274.8744,8.8385e-05,1.119e-05,0.0,0 STARLINK-4691,1 53588U 22104A   24188.17671571  .00001119  00000-0  88385-4 0  9994,2 53588  53.2157 109.5586 0001355  85.2403 274.8744 15.08842030102600,6917.874,95.437,540.677,538.802,0.0
53588.0,STARLINK-4691,PAYLOAD,2024-07-06 12:11:23,15.08847686,0.0001446,53.2164,108.0743,83.1039,277.0118,0.00017412,2.485e-05,0.0,0 STARLINK-4691,1 53588U 22104A   24188.50791346  .00002485  00000-0  17412-3 0  9993,2 53588  53.2164 108.0743 0001446  83.1039 277.0118 15.08847686103827,6917.857,95.437,540.722,538.722,0.0
53588.0,STARLINK-4691,PAYLOAD,2024-07-06 18:32:56,15.08840553,0.0001814,53.2181,106.884,94.8134,265.3065,6.566e-05,7.57e-06,0.0,0 STARLINK-4691,1 53588U 22104A   24188.77287738  .00000757  00000-0  65660-4 0  9996,2 53588  53.2181 106.8840 0001814  94.8134 265.3065 15.08840553103865,6917.879,95.438,540.999,538.489,0.0
53588.0,STARLINK-4691,PAYLOAD,2024-07-07 04:05:15,15.08840692,0.000166,53.2167,105.099,103.5656,256.5521,4.008e-05,3.5e-06,0.0,0 STARLINK-4691,1 53588U 22104A   24189.17031846  .00000350  00000-0  40080-4 0  9996,2 53588  53.2167 105.0990 0001660 103.5656 256.5521 15.08840692102752,6917.878,95.438,540.892,538.595,0.0
53588.0,STARLINK-4691,PAYLOAD,2024-07-08 00:45:16,15.08841354,0.0001581,53.2179,101.2337,102.1972,257.9198,0.00016472,2.335e-05,0.0,0 STARLINK-4691,1 53588U 22104A   24190.03143849  .00002335  00000-0  16472-3 0  9992,2 53588  53.2179 101.2337 0001581 102.1972 257.9198 15.08841354104052,6917.876,95.437,540.835,538.648,0.0
53588.0,STARLINK-4691,PAYLOAD,2024-07-08 21:25:17,15.08842065,0.0001431,53.217,97.368,101.1274,258.988,0.00017526,2.503e-05,0.0,0 STARLINK-4691,1 53588U 22104A   24190.89255801  .00002503  00000-0  17526-3 0  9996,2 53588  53.2170  97.3680 0001431 101.1274 258.9880 15.08842065103011,6917.874,95.437,540.729,538.749,0.0
53588.0,STARLINK-4691,PAYLOAD,2024-07-09 03:46:49,15.08840835,0.0001284,53.2172,96.1784,96.7108,263.403,7.7081e-05,9.39e-06,0.0,0 STARLINK-4691,1 53588U 22104A   24191.15751803  .00000939  00000-0  77081-4 0  9993,2 53588  53.2172  96.1784 0001284  96.7108 263.4030 15.08840835104221,6917.878,95.438,540.631,538.855,0.0
53588.0,STARLINK-4691,PAYLOAD,2024-07-09 21:16:04,15.08832863,0.0001247,53.2171,92.9068,94.7823,265.3312,-6.2239e-05,-1.278e-05,0.0,0 STARLINK-4691,1 53588U 22104A   24191.88616290 -.00001278  00000-0 -62239-4 0  9991,2 53588  53.2171  92.9068 0001247  94.7823 265.3312 15.08832863103168,6917.902,95.438,540.63,538.905,0.0
53588.0,STARLINK-4691,PAYLOAD,2024-07-09 22:51:27,15.0883306,0.0001222,53.2179,92.6093,95.9065,264.2066,-1.1639e-05,-4.73e-06,0.0,0 STARLINK-4691,1 53588U 22104A   24191.95240622 -.00000473  00000-0 -11639-4 0  9995,2 53588  53.2179  92.6093 0001222  95.9065 264.2066 15.08833060104340,6917.902,95.438,540.612,538.921,0.0
53588.0,STARLINK-4691,PAYLOAD,2024-07-10 09:59:09,15.08843809,0.0001204,53.2181,90.5297,92.9859,267.1271,3.1798e-05,2.18e-06,0.0,0 STARLINK-4691,1 53588U 22104A   24192.41607847  .00000218  00000-0  31798-4 0  9996,2 53588  53.2181  90.5297 0001204  92.9859 267.1271 15.08843809103244,6917.869,95.437,540.567,538.901,0.0
53588.0,STARLINK-4691,PAYLOAD,2024-07-10 21:06:52,15.08831804,0.0001352,53.2193,88.4493,95.9517,264.1629,1.2782e-05,-8.4e-07,0.0,0 STARLINK-4691,1 53588U 22104A   24192.87976900 -.00000084  00000-0  12782-4 0  9999,2 53588  53.2193  88.4493 0001352  95.9517 264.1629 15.08831804103313,6917.905,95.438,540.706,538.835,0.0
53588.0,STARLINK-4691,PAYLOAD,2024-07-10 22:42:15,15.08833387,0.0001437,53.2194,88.1547,103.8216,256.2936,5.009e-05,5.09e-06,0.0,0 STARLINK-4691,1 53588U 22104A   24192.94600756  .00000509  00000-0  50090-4 0  9995,2 53588  53.2194  88.1547 0001437 103.8216 256.2936 15.08833387104491,6917.901,95.438,540.76,538.772,0.0
53588.0,STARLINK-4691,PAYLOAD,2024-07-11 00:17:38,15.08833205,0.0001385,53.2197,87.8573,104.0013,256.1133,6.7319e-05,7.83e-06,0.0,0 STARLINK-4691,1 53588U 22104A   24193.01224729  .00000783  00000-0  67319-4 0  9992,2 53588  53.2197  87.8573 0001385 104.0013 256.1133 15.08833205104508,6917.901,95.438,540.724,538.808,0.0
53588.0,STARLINK-4691,PAYLOAD,2024-07-12 01:43:48,15.08836717,0.0001388,53.2186,83.0996,102.0722,258.0426,0.0001575,2.219e-05,0.0,0 STARLINK-4691,1 53588U 22104A   24194.07208621  .00002219  00000-0  15750-3 0  9999,2 53588  53.2186  83.0996 0001388 102.0722 258.0426 15.08836717103495,6917.89,95.438,540.716,538.795,0.0
53588.0,STARLINK-4691,PAYLOAD,2024-07-12 09:40:43,15.08850698,0.0001305,53.2189,81.6083,77.6296,282.4843,0.00020124,2.917e-05,0.0,0 STARLINK-4691,1 53588U 22104A   24194.40327671  .00002917  00000-0  20124-3 0  9999,2 53588  53.2189  81.6083 0001305  77.6296 282.4843 15.08850698103545,6917.848,95.437,540.615,538.81,0.0
53588.0,STARLINK-4691,PAYLOAD,2024-07-12 20:48:26,15.08830713,0.0001576,53.2186,79.5284,88.2055,271.9118,5.3284e-05,5.6e-06,0.0,0 STARLINK-4691,1 53588U 22104A   24194.86697515  .00000560  00000-0  53284-4 0  9992,2 53588  53.2186  79.5284 0001576  88.2055 271.9118 15.08830713103614,6917.909,95.438,540.864,538.684,0.0
53588.0,STARLINK-4691,PAYLOAD,2024-07-12 22:23:49,15.08833093,0.0001441,53.2181,79.2283,89.5851,270.5306,1.9654e-05,2.5e-07,0.0,0 STARLINK-4691,1 53588U 22104A   24194.93321436  .00000025  00000-0  19654-4 0  9995,2 53588  53.2181  79.2283 0001441  89.5851 270.5306 15.08833093104792,6917.902,95.438,540.763,538.77,0.0
53588.0,STARLINK-4691,PAYLOAD,2024-07-13 09:31:30,15.08849098,0.000137,53.2184,77.1462,89.0525,271.0624,0.0001686,2.397e-05,0.0,0 STARLINK-4691,1 53588U 22104A   24195.39688121  .00002397  00000-0  16860-3 0  9992,2 53588  53.2184  77.1462 0001370  89.0525 271.0624 15.08849098103694,6917.853,95.437,540.665,538.77,0.0
53588.0,STARLINK-4691,PAYLOAD,2024-07-13 20:39:12,15.08845279,0.0001792,53.2183,75.0636,86.2129,273.9068,7.4275e-05,8.94e-06,0.0,0 STARLINK-4691,1 53588U 22104A   24195.86056598  .00000894  00000-0  74275-4 0  9996,2 53588  53.2183  75.0636 0001792  86.2129 273.9068 15.08845279103768,6917.864,95.437,540.969,538.49,0.0
53588.0,STARLINK-4691,PAYLOAD,2024-07-13 22:14:36,15.08839709,9.53e-05,53.2177,74.7682,87.4776,272.6326,-4.8567e-05,-1.061e-05,0.0,0 STARLINK-4691,1 53588U 22104A   24195.92680604 -.00001061  00000-0 -48567-4 0  9998,2 53588  53.2177  74.7682 0000953  87.4776 272.6326 15.08839709104942,6917.881,95.438,540.406,539.087,0.0
53588.0,STARLINK-4691,PAYLOAD,2024-07-14 09:22:17,15.08855239,0.0001485,53.2203,72.685,97.5908,262.5252,9.0172e-05,1.148e-05,0.0,0 STARLINK-4691,1 53588U 22104A   24196.39047676  .00001148  00000-0  90172-4 0  9999,2 53588  53.2203  72.6850 0001485  97.5908 262.5252 15.08855239103846,6917.834,95.437,540.726,538.672,0.0
53588.0,STARLINK-4691,PAYLOAD,2024-07-14 20:29:59,15.08842783,0.0001589,53.2175,70.6047,98.8485,261.2687,0.00023682,3.483e-05,0.0,0 STARLINK-4691,1 53588U 22104A   24196.85416586  .00003483  00000-0  23682-3 0  9995,2 53588  53.2175  70.6047 0001589  98.8485 261.2687 15.08842783103915,6917.872,95.437,540.836,538.638,0.0
53588.0,STARLINK-4691,PAYLOAD,2024-07-14 22:05:22,15.08843005,0.0001453,53.2173,70.3105,84.7742,275.3416,9.8342e-05,1.278e-05,0.0,0 STARLINK-4691,1 53588U 22104A   24196.92040509  .00001278  00000-0  98342-4 0  9997,2 53588  53.2173  70.3105 0001453  84.7742 275.3416 15.08843005105090,6917.871,95.437,540.741,538.731,0.0
